GOES 1 (SMS-C) [-]      
1 08366U 75100A   22361.47031773 -.00000183  00000+0  00000+0 0  9993
2 08366   7.8084 293.3079 0002672 305.9813 297.9542  1.00239790172358
GOES 2 [-]              
1 10061U 77048A   22360.59510409 -.00000121  00000+0  00000+0 0  9993
2 10061   9.4151 305.0833 0012216  22.9086 159.6702  0.99401520 33669
GOES 3 [-]              
1 10953U 78062A   22361.08105133 -.00000071  00000+0  00000+0 0  9993
2 10953   9.7583 309.7089 0000895 169.8188  17.4251  0.99363127115930
GOES 4 [-]              
1 11964U 80074A   22360.91091187 -.00000205  00000+0  00000+0 0  9995
2 11964  10.7328 313.5387 0031839  77.0753  22.9938  0.99233476114852
GOES 5 [-]              
1 12472U 81049A   22361.34702101 -.00000285  00000+0  00000+0 0  9994
2 12472  11.6252 325.0409 0001146 258.9815 289.8141  1.00263454110132
GOES 6 [-]              
1 14050U 83041A   22361.47491610 -.00000252  00000+0  00000+0 0  9990
2 14050  12.2122 330.3872 0002737 164.8393  53.8597  1.00249303203308
GOES 7 [-]              
1 17561U 87022A   22361.20280363 -.00000177  00000+0  00000+0 0  9991
2 17561  14.0775 346.9867 0003950  56.0429 113.8103  0.99908435114293
GOES 8 [-]              
1 23051U 94022A   22361.44660462 -.00000264  00000+0  00000+0 0  9995
2 23051  13.3408  22.8312 0003892  20.5945 345.5901  0.98906666111591
GOES 9 [-]              
1 23581U 95025A   22361.41322038 -.00000238  00000+0  00000+0 0  9999
2 23581  12.8361  23.2314 0004649 124.7938  61.6125  0.98801519100232
GOES 10 [-]             
1 24786U 97019A   22361.26696188  .00000048  00000+0  00000+0 0  9993
2 24786  11.6386  29.4868 0027670 206.3414 179.3565  0.99122092 93500
GOES 11 [-]             
1 26352U 00022A   22361.28343144 -.00000001  00000+0  00000+0 0  9995
2 26352   9.0922  57.7784 0002687 210.3024 322.8616  0.99042434 39910
GOES 12 [-]             
1 26871U 01031A   22361.35081012 -.00000114  00000+0  00000+0 0  9998
2 26871   9.8637  46.9103 0004769 302.7863 244.0585  0.99139016 78198
EWS-G1 (GOES 13) [+]    
1 29155U 06018A   22361.50430794  .00000037  00000+0  00000+0 0  9991
2 29155   1.0725  93.2135 0006215 154.8869  91.0240  1.00276229 30667
GOES 14 [B]             
1 35491U 09033A   22361.41082032 -.00000090  00000+0  00000+0 0  9999
2 35491   0.1276 252.2229 0017589 333.7387 273.5313  1.00269444 49397
GOES 15 [B]             
1 36411U 10008A   22361.51230012  .00000055  00000+0  00000+0 0  9990
2 36411   0.0825 287.1148 0003579 263.9191 321.7722  1.00261362 46946
GOES 16 [+]             
1 41866U 16071A   22361.52410404 -.00000246  00000+0  00000+0 0  9995
2 41866   0.0797 251.5856 0000573  59.4752 258.4070  1.00271490 22407
GOES 17 [+]             
1 43226U 18022A   22361.20301997  .00000101  00000+0  00000+0 0  9995
2 43226   0.0174 128.7284 0000184 163.9763  98.7035  1.00270845 17705
GOES 18 [+]             
1 51850U 22021A   22361.36577071  .00000099  00000+0  00000+0 0  9992
2 51850   0.0434 186.7949 0000853  68.6026 195.1663  1.00270495  3068
